[{"OBJECT_NAME":"STARLINK-34477","OBJECT_ID":"2025-133R","EPOCH":"2026-03-09T13:04:05.060064","MEAN_MOTION":15.30205457,"ECCENTRICITY":0.00011008,"INCLINATION":53.1576,"RA_OF_ASC_NODE":117.649,"ARG_OF_PERICENTER":82.7412,"MEAN_ANOMALY":277.3713,"EPHEMERIS_TYPE":0,"CLASSIFICATION_TYPE":"U","NORAD_CAT_ID":64487,"ELEMENT_SET_NO":999,"REV_AT_EPOCH":4115,"BSTAR":0.0015111991,"MEAN_MOTION_DOT":0.00044675,"MEAN_MOTION_DDOT":0},{"OBJECT_NAME":"FENGYUN 1C DEB","OBJECT_ID":"1999-025AJJ","EPOCH":"2026-03-09T18:40:58.380672","MEAN_MOTION":15.18672988,"ECCENTRICITY":0.00638575,"INCLINATION":98.7226,"RA_OF_ASC_NODE":259.4919,"ARG_OF_PERICENTER":168.3626,"MEAN_ANOMALY":191.9098,"EPHEMERIS_TYPE":0,"CLASSIFICATION_TYPE":"U","NORAD_CAT_ID":30520,"ELEMENT_SET_NO":999,"REV_AT_EPOCH":2360,"BSTAR":0.0014000942,"MEAN_MOTION_DOT":0.0003064,"MEAN_MOTION_DDOT":0}]
